NORAD_CAT_ID,OBJECT_NAME,OBJECT_TYPE,EPOCH,MEAN_MOTION,ECCENTRICITY,INCLINATION,RA_OF_ASC_NODE,ARG_OF_PERICENTER,MEAN_ANOMALY,BSTAR,MEAN_MOTION_DOT,MEAN_MOTION_DDOT,TLE_LINE0,TLE_LINE1,TLE_LINE2,SEMIMAJOR_AXIS,PERIOD,APOGEE,PERIGEE,DECAYED
53602.0,STARLINK-4648,PAYLOAD,2022-09-02 14:00:01,15.88607354,0.0033443,53.2171,261.3325,56.3816,184.359,-0.0045896,-0.01374893,0.00052852,0 STARLINK-4648,1 53602U 22104Q   22245.58334491 -.01374893  52852-3 -45896-2 0  9993,2 53602  53.2171 261.3325 0033443  56.3816 184.3590 15.88607354   888,6684.324000000001,90.645,328.543,283.834,0.0
53602.0,STARLINK-4648,PAYLOAD,2022-09-03 06:00:00,15.86811971,0.0026434,53.2178,257.9604,58.2611,35.2434,-0.0047003999999999,-0.01264371,0.00044625,0 STARLINK-4648,1 53602U 22104Q   22246.25001157 -.01264371  44625-3 -47004-2 0  9999,2 53602  53.2178 257.9604 0026434  58.2611  35.2434 15.86811971   995,6689.365,90.748,328.912,293.547,0.0
53602.0,STARLINK-4648,PAYLOAD,2022-09-03 14:00:01,15.8594199,0.0023718,53.2169,256.2792,58.0139,140.3024,-0.0049938,-0.0127934,0.00045234,0 STARLINK-4648,1 53602U 22104Q   22246.58334491 -.01279340  45234-3 -49938-2 0  9992,2 53602  53.2169 256.2792 0023718  58.0139 140.3024 15.85941990  1303,6691.811,90.798,329.547,297.8040000000001,0.0
53602.0,STARLINK-4648,PAYLOAD,2022-09-03 20:00:01,15.85336816,0.0021004,53.2174,255.0179,57.0311,129.1761,-0.0054262,-0.01187277,0.0,0 STARLINK-4648,1 53602U 22104Q   22246.83334491 -.01187277  00000-0 -54262-2 0  9992,2 53602  53.2174 255.0179 0021004  57.0311 129.1761 15.85336816  1085,6693.514,90.832,329.4380000000001,301.319,0.0
53602.0,STARLINK-4648,PAYLOAD,2022-09-03 22:00:00,15.85077393,0.0019909,53.2172,254.5974,57.6377,244.4357,-0.0052522,-0.01138265,0.0,0 STARLINK-4648,1 53602U 22104Q   22246.91667824 -.01138265  00000-0 -52522-2 0  9990,2 53602  53.2172 254.5974 0019909  57.6377 244.4357 15.85077393  1308,6694.244000000002,90.847,329.436,302.781,0.0
53602.0,STARLINK-4648,PAYLOAD,2022-09-04 06:00:00,15.84179136,0.0016718,53.2175,252.921,57.8639,346.9415,-0.0052706,-0.01092169,0.0,0 STARLINK-4648,1 53602U 22104Q   22247.25001157 -.01092169  00000-0 -52706-2 0  9995,2 53602  53.2175 252.9210 0016718  57.8639 346.9415 15.84179136  1146,6696.774,90.899,329.835,307.443,0.0
53602.0,STARLINK-4648,PAYLOAD,2022-09-04 14:00:01,15.83368097,0.0014059,53.217,251.2459,56.0309,90.4834,-0.0058873999999999,-0.01158775,0.0,0 STARLINK-4648,1 53602U 22104Q   22247.58335648 -.01158775  00000-0 -58874-2 0  9994,2 53602  53.2170 251.2459 0014059  56.0309  90.4834 15.83368097  1308,6699.061,90.945,330.344,311.508,0.0
53602.0,STARLINK-4648,PAYLOAD,2022-09-04 16:00:00,15.8318474,0.0013062,53.2173,250.8268,55.6295,206.0626,-0.0062563,-0.01234513,0.0,0 STARLINK-4648,1 53602U 22104Q   22247.66667824 -.01234513  00000-0 -62563-2 0  9992,2 53602  53.2173 250.8268 0013062  55.6295 206.0626 15.83184740  1211,6699.578,90.956,330.194,312.692,0.0
53602.0,STARLINK-4648,PAYLOAD,2022-09-04 20:00:01,15.82717395,0.0011450999999999,53.2176,249.9894,53.0942,78.9256,-0.0060754,-0.01176481,0.0,0 STARLINK-4648,1 53602U 22104Q   22247.83334491 -.01176481  00000-0 -60754-2 0  9991,2 53602  53.2176 249.9894 0011451  53.0942  78.9256 15.82717395  1301,6700.897,90.983,330.435,315.089,0.0
53602.0,STARLINK-4648,PAYLOAD,2022-09-05 04:00:00,15.81877382,0.0007727,53.2178,248.3186,46.1204,185.7387,-0.0066208,-0.01221342,0.0,0 STARLINK-4648,1 53602U 22104Q   22248.16667824 -.01221342  00000-0 -66208-2 0  9994,2 53602  53.2178 248.3186 0007727  46.1204 185.7387 15.81877382  1297,6703.269,91.031,330.3130000000001,319.954,0.0
53602.0,STARLINK-4648,PAYLOAD,2022-09-05 14:00:01,15.80769416,0.0004252,53.2172,246.232,27.6657,57.5468,-0.0067375,-0.01181289,0.0,0 STARLINK-4648,1 53602U 22104Q   22248.58334491 -.01181289  00000-0 -67375-2 0  9992,2 53602  53.2172 246.2320 0004252  27.6657  57.5468 15.80769416  1309,6706.401,91.095,331.117,325.414,0.0
53602.0,STARLINK-4648,PAYLOAD,2022-09-05 20:00:01,15.80118456,0.0003737,53.2173,244.9801,19.7478,48.6906,-0.0069503,-0.01181834,0.0,0 STARLINK-4648,1 53602U 22104Q   22248.83334491 -.01181834  00000-0 -69503-2 0  9991,2 53602  53.2173 244.9801 0003737  19.7478  48.6906 15.80118456  1309,6708.2419999999975,91.132,332.6140000000001,327.6,0.0
53602.0,STARLINK-4648,PAYLOAD,2022-09-06 04:00:00,15.79258923,0.0003271,53.2175,243.3157,8.6474,156.5075,-0.0073167,-0.01193961,0.0,0 STARLINK-4648,1 53602U 22104Q   22249.16667824 -.01193961  00000-0 -73167-2 0  9992,2 53602  53.2175 243.3157 0003271   8.6474 156.5075 15.79258923  1458,6710.676,91.182,334.736,330.346,0.0
53602.0,STARLINK-4648,PAYLOAD,2022-09-06 14:00:01,15.78217069,0.0002689,53.2169,241.237,343.1198,31.446,-0.0080575,-0.01246423,0.0,0 STARLINK-4648,1 53602U 22104Q   22249.58334491 -.01246423  00000-0 -80575-2 0  9992,2 53602  53.2169 241.2370 0002689 343.1198  31.4460 15.78217069  1305,6713.629,91.242,337.2990000000001,333.689,0.0
53602.0,STARLINK-4648,PAYLOAD,2022-09-06 20:00:01,15.77522688,0.0002796999999999,53.2174,239.99,5.3643,350.1035,-0.0079143,-0.01193152,0.0,0 STARLINK-4648,1 53602U 22104Q   22249.83334491 -.01193152  00000-0 -79143-2 0  9999,2 53602  53.2174 239.9900 0002797   5.3643 350.1035 15.77522688  1557,6715.599,91.282,339.343,335.586,0.0
53602.0,STARLINK-4648,PAYLOAD,2022-09-06 22:00:00,15.77306708,0.0002963,53.2175,239.5748,9.5193,99.4437,-0.0080016999999999,-0.01194582,0.0,0 STARLINK-4648,1 53602U 22104Q   22249.91667824 -.01194582  00000-0 -80017-2 0  9997,2 53602  53.2175 239.5748 0002963   9.5193  99.4437 15.77306708  1300,6716.212,91.295,340.06699999999995,336.087,0.0
53602.0,STARLINK-4648,PAYLOAD,2022-09-07 12:00:00,15.75792449,0.0001315,53.2171,236.6761,338.5818,203.0222,-0.0086173,-0.0120051,0.0,0 STARLINK-4648,1 53602U 22104Q   22250.50001157 -.01200510  00000-0 -86173-2 0  9993,2 53602  53.2171 236.6761 0001315 338.5818 203.0222 15.75792449  1661,6720.514,91.383,343.2630000000001,341.495,0.0
53602.0,STARLINK-4648,PAYLOAD,2022-09-07 14:00:01,15.75617389,9.05e-05,53.2167,236.2613,8.6352,285.9233,-0.0091135,-0.01275196,0.0,0 STARLINK-4648,1 53602U 22104Q   22250.58334491 -.01275196  00000-0 -91135-2 0  9997,2 53602  53.2167 236.2613 0000905   8.6352 285.9233 15.75617389  1301,6721.012,91.393,343.485,342.269,0.0
53602.0,STARLINK-4648,PAYLOAD,2022-09-07 22:00:00,15.747043599999998,0.0001376999999999,53.2173,234.6057,39.216,346.6093,-0.0090111,-0.01197002,0.0,0 STARLINK-4648,1 53602U 22104Q   22250.91667824 -.01197002  00000-0 -90111-2 0  9995,2 53602  53.2173 234.6057 0001377  39.2160 346.6093 15.74704360  1307,6723.61,91.446,346.4,344.5490000000001,0.0
53602.0,STARLINK-4648,PAYLOAD,2022-09-08 04:00:00,15.7391249,0.0001556,53.2174,233.368,42.2844,321.3108,-0.005787,-0.00765927,0.0,0 STARLINK-4648,1 53602U 22104Q   22251.16667824 -.00765927  00000-0 -57870-2 0  9994,2 53602  53.2174 233.3680 0001556  42.2844 321.3108 15.73912490  1769,6725.865,91.492,348.776,346.68300000000005,0.0
53602.0,STARLINK-4648,PAYLOAD,2022-09-08 14:00:01,15.73203933,0.0001413,53.2174,231.3048,51.1325,154.174,-9.31e-06,-1.927e-05,0.0,0 STARLINK-4648,1 53602U 22104Q   22251.58334491 -.00001927  00000-0 -93100-5 0  9993,2 53602  53.2174 231.3048 0001413  51.1325 154.1740 15.73203933  1309,6727.884,91.533,350.7,348.798,0.0
53602.0,STARLINK-4648,PAYLOAD,2022-09-08 22:00:00,15.73237971,0.0001016,53.2153,229.6519,67.51,226.7601,5.6366e-05,7.31e-05,0.0,0 STARLINK-4648,1 53602U 22104Q   22251.91667824  .00007310  00000-0  56366-4 0  9991,2 53602  53.2153 229.6519 0001016  67.5100 226.7601 15.73237971  1301,6727.7869999999975,91.531,350.335,348.968,0.0
53602.0,STARLINK-4648,PAYLOAD,2022-09-09 14:00:01,15.73214025,0.0001074,53.2147,226.3538,62.2956,49.9068,-0.00011056,-0.00016115,0.0,0 STARLINK-4648,1 53602U 22104Q   22252.58334491 -.00016115  00000-0 -11056-3 0  9997,2 53602  53.2147 226.3538 0001074  62.2956  49.9068 15.73214025  1301,6727.855,91.532,350.4430000000001,348.99800000000016,0.0
53602.0,STARLINK-4648,PAYLOAD,2022-09-09 22:00:00,15.73180189,9.13e-05,53.2151,224.703,74.6343,126.5127,0.00040372,0.00056372,0.0,0 STARLINK-4648,1 53602U 22104Q   22252.91667824  .00056372  00000-0  40372-3 0  9993,2 53602  53.2151 224.7030 0000913  74.6343 126.5127 15.73180189  1304,6727.9519999999975,91.534,350.431,349.202,0.0
53602.0,STARLINK-4648,PAYLOAD,2022-09-10 14:00:01,15.73208635,0.0001042999999999,53.2155,221.4051,63.7153,315.2618,-0.00010716,-0.00015636,0.0,0 STARLINK-4648,1 53602U 22104Q   22253.58334491 -.00015636  00000-0 -10716-3 0  9997,2 53602  53.2155 221.4051 0001043  63.7153 315.2618 15.73208635  1307,6727.871,91.533,350.43699999999984,349.034,0.0
53602.0,STARLINK-4648,PAYLOAD,2022-09-10 20:00:01,15.73198825,9.74e-05,53.2155,220.1668,73.0111,282.6674,-1.6863e-05,-2.985e-05,0.0,0 STARLINK-4648,1 53602U 22104Q   22253.83334491 -.00002985  00000-0 -16863-4 0  9998,2 53602  53.2155 220.1668 0000974  73.0111 282.6674 15.73198825  2182,6727.899,91.533,350.4190000000001,349.108,0.0
53602.0,STARLINK-4648,PAYLOAD,2022-09-10 22:00:00,15.73202848,9.9e-05,53.2158,219.7547,75.1754,32.7299,-9.3098e-05,-0.00013665,0.0,0 STARLINK-4648,1 53602U 22104Q   22253.91667824 -.00013665  00000-0 -93098-4 0  9998,2 53602  53.2158 219.7547 0000990  75.1754  32.7299 15.73202848  1300,6727.887,91.533,350.418,349.086,0.0
53602.0,STARLINK-4648,PAYLOAD,2022-09-11 14:00:01,15.73226067,0.0001146,53.2152,216.4564,72.9145,212.8973,-9.9522e-05,-0.00014578,0.0,0 STARLINK-4648,1 53602U 22104Q   22254.58334491 -.00014578  00000-0 -99522-4 0  9995,2 53602  53.2152 216.4564 0001146  72.9145 212.8973 15.73226067  2300,6727.821,91.532,350.457,348.915,0.0
53602.0,STARLINK-4648,PAYLOAD,2022-09-11 22:00:00,15.73261197,0.0001246,53.2156,214.8061,84.0287,290.7262,-0.0002289,-0.00032704,0.0,0 STARLINK-4648,1 53602U 22104Q   22254.91667824 -.00032704  00000-0 -22890-3 0  9995,2 53602  53.2156 214.8061 0001246  84.0287 290.7262 15.73261197  1308,6727.721,91.53,350.4240000000001,348.747,0.0
